NORAD_CAT_ID,OBJECT_NAME,OBJECT_TYPE,EPOCH,MEAN_MOTION,ECCENTRICITY,INCLINATION,RA_OF_ASC_NODE,ARG_OF_PERICENTER,MEAN_ANOMALY,BSTAR,MEAN_MOTION_DOT,MEAN_MOTION_DDOT,TLE_LINE0,TLE_LINE1,TLE_LINE2,SEMIMAJOR_AXIS,PERIOD,APOGEE,PERIGEE,DECAYED
52358.0,STARLINK-3837,PAYLOAD,2023-03-16 22:35:32,15.08843208,0.0001229,53.2163,46.6986,96.0968,264.0164,0.0011569,0.00018174,0.0,0 STARLINK-3837,1 52358U 22045AD  23075.94134616  .00018174  00000-0  11569-2 0  9992,2 52358  53.2163  46.6986 0001229  96.0968 264.0164 15.08843208 51420,6917.871,95.437,540.586,538.885,0.0
52358.0,STARLINK-3837,PAYLOAD,2023-03-17 04:57:05,15.08833802,8.91e-05,53.2159,45.509,82.8738,277.2355,0.0013898,0.00021896,0.0,0 STARLINK-3837,1 52358U 22045AD  23076.20630833  .00021896  00000-0  13898-2 0  9996,2 52358  53.2159  45.5090 0000891  82.8738 277.2355 15.08833802 51462,6917.899,95.438,540.381,539.148,0.0
52358.0,STARLINK-3837,PAYLOAD,2023-03-17 09:43:14,15.08841109,9.62e-05,53.2164,44.6172,82.7981,277.3121,0.00095099,0.0001488,0.0,0 STARLINK-3837,1 52358U 22045AD  23076.40502851  .00014880  00000-0  95099-3 0  9995,2 52358  53.2164  44.6172 0000962  82.7981 277.3121 15.08841109 51491,6917.877,95.437,540.407,539.076,0.0
52358.0,STARLINK-3837,PAYLOAD,2023-03-17 14:29:24,15.08829858,0.0001011,53.216,43.7253,94.5731,265.5376,0.00057139,8.815e-05,0.0,0 STARLINK-3837,1 52358U 22045AD  23076.60375181  .00008815  00000-0  57139-3 0  9995,2 52358  53.2160  43.7253 0001011  94.5731 265.5376 15.08829858 51529,6917.911,95.438,540.476,539.077,0.0
52358.0,STARLINK-3837,PAYLOAD,2023-03-17 20:50:56,15.08837455,7.91e-05,53.2161,42.5352,100.6267,259.4814,0.00066717,0.00010345,0.0,0 STARLINK-3837,1 52358U 22045AD  23076.86871140  .00010345  00000-0  66717-3 0  9992,2 52358  53.2161  42.5352 0000791 100.6267 259.4814 15.08837455 51569,6917.888,95.438,540.3,539.206,0.0
52358.0,STARLINK-3837,PAYLOAD,2023-03-18 04:47:52,15.08854005,8.96e-05,53.2166,41.0496,106.1306,253.9785,0.0014643,0.00023102,0.0,0 STARLINK-3837,1 52358U 22045AD  23077.19990973  .00023102  00000-0  14643-2 0  9990,2 52358  53.2166  41.0496 0000896 106.1306 253.9785 15.08854005 51610,6917.838,95.437,540.322,539.083,0.0
52358.0,STARLINK-3837,PAYLOAD,2023-03-18 14:20:10,15.08858184,7.21e-05,53.2155,39.2659,87.7946,272.3129,0.00085019,0.00013275,0.0,0 STARLINK-3837,1 52358U 22045AD  23077.59734643  .00013275  00000-0  85019-3 0  9990,2 52358  53.2155  39.2659 0000721  87.7946 272.3129 15.08858184 51674,6917.825,95.436,540.189,539.191,0.0
52358.0,STARLINK-3837,PAYLOAD,2023-03-19 04:38:39,15.08851362,0.0001096,53.2158,36.5878,91.5368,268.5749,0.00068223,0.0001059,0.0,0 STARLINK-3837,1 52358U 22045AD  23078.19350825  .00010590  00000-0  68223-3 0  9998,2 52358  53.2158  36.5878 0001096  91.5368 268.5749 15.08851362 51763,6917.846,95.437,540.469,538.952,0.0
52358.0,STARLINK-3837,PAYLOAD,2023-03-19 06:14:02,15.08850248,0.0001107,53.2157,36.2909,85.9135,274.1983,0.001629,0.0002574,0.0,0 STARLINK-3837,1 52358U 22045AD  23078.25974929  .00025740  00000-0  16290-2 0  9991,2 52358  53.2157  36.2909 0001107  85.9135 274.1983 15.08850248 51772,6917.849,95.437,540.48,538.948,0.0
52358.0,STARLINK-3837,PAYLOAD,2023-03-19 14:10:58,15.0884719,0.0001574,53.2162,34.8036,92.4709,267.6463,0.0012352,0.00019429,0.0,0 STARLINK-3837,1 52358U 22045AD  23078.59095329  .00019429  00000-0  12352-2 0  9998,2 52358  53.2162  34.8036 0001574  92.4709 267.6463 15.08847190 51829,6917.858,95.437,540.812,538.635,0.0
52358.0,STARLINK-3837,PAYLOAD,2023-03-20 04:29:26,15.08848585,0.0001139,53.2161,32.1274,97.2647,262.8475,0.0004867,7.468e-05,0.0,0 STARLINK-3837,1 52358U 22045AD  23079.18711030  .00007468  00000-0  48670-3 0  9991,2 52358  53.2161  32.1274 0001139  97.2647 262.8475 15.08848585 51913,6917.854,95.437,540.507,538.931,0.0
52358.0,STARLINK-3837,PAYLOAD,2023-03-21 05:55:36,15.08855271,0.0001271,53.2163,27.3682,122.495,237.6165,0.00059429,9.187e-05,0.0,0 STARLINK-3837,1 52358U 22045AD  23080.24694730  .00009187  00000-0  59429-3 0  9991,2 52358  53.2163  27.3682 0001271 122.4950 237.6165 15.08855271 52073,6917.834,95.437,540.578,538.819,0.0
52358.0,STARLINK-3837,PAYLOAD,2023-03-22 05:46:24,15.08838283,0.0001321,53.2172,22.9076,109.2825,250.831,0.00041147,6.266e-05,0.0,0 STARLINK-3837,1 52358U 22045AD  23081.24055638  .00006266  00000-0  41147-3 0  9993,2 52358  53.2172  22.9076 0001321 109.2825 250.8310 15.08838283 52221,6917.886,95.438,540.664,538.837,0.0
52358.0,STARLINK-3837,PAYLOAD,2023-03-23 05:37:10,15.0886224,0.0001052,53.2162,18.4484,85.3492,274.762,0.0011585,0.00018209,0.0,0 STARLINK-3837,1 52358U 22045AD  23082.23415440  .00018209  00000-0  11585-2 0  9996,2 52358  53.2162  18.4484 0001052  85.3492 274.7620 15.08862240 52373,6917.812,95.436,540.405,538.95,0.0
52358.0,STARLINK-3837,PAYLOAD,2023-03-24 03:52:34,15.08889259,0.0001077,53.217,14.2877,71.0239,289.087,0.00302,0.00048169,0.0,0 STARLINK-3837,1 52358U 22045AD  23083.16151591  .00048169  00000-0  30200-2 0  9996,2 52358  53.2170  14.2877 0001077  71.0239 289.0870 15.08889259 52511,6917.73,95.434,540.34,538.85,0.0
52358.0,STARLINK-3837,PAYLOAD,2023-03-25 02:07:59,15.08841706,0.0001265,53.2167,10.1253,90.4924,269.6213,0.0014034,0.00022119,0.0,0 STARLINK-3837,1 52358U 22045AD  23084.08888756  .00022119  00000-0  14034-2 0  9992,2 52358  53.2167  10.1253 0001265  90.4924 269.6213 15.08841706 52650,6917.875,95.437,540.615,538.865,0.0
52358.0,STARLINK-3837,PAYLOAD,2023-03-26 01:58:47,15.08844066,0.000141,53.2174,5.6688,102.9976,257.1174,0.00054496,8.397e-05,0.0,0 STARLINK-3837,1 52358U 22045AD  23085.08249042  .00008397  00000-0  54496-3 0  9991,2 52358  53.2174   5.6688 0001410 102.9976 257.1174 15.08844066 52804,6917.868,95.437,540.708,538.758,0.0
52358.0,STARLINK-3837,PAYLOAD,2023-03-26 05:09:32,15.08856722,0.0001485,53.2169,5.0718,65.3166,294.7981,0.0010849,0.00017028,0.0,0 STARLINK-3837,1 52358U 22045AD  23085.21496503  .00017028  00000-0  10849-2 0  9996,2 52358  53.2169   5.0718 0001485  65.3166 294.7981 15.08856722 52828,6917.829,95.436,540.722,538.667,0.0
52358.0,STARLINK-3837,PAYLOAD,2023-03-26 22:38:47,15.08840444,0.0001414,53.2165,1.7982,77.0301,283.0849,0.00045322,6.932e-05,0.0,0 STARLINK-3837,1 52358U 22045AD  23085.94361040  .00006932  00000-0  45322-3 0  9990,2 52358  53.2165   1.7982 0001414  77.0301 283.0849 15.08840444 52933,6917.879,95.438,540.722,538.766,0.0
52358.0,STARLINK-3837,PAYLOAD,2023-03-27 03:24:57,15.08850762,0.0001644,53.2175,0.9058,73.9625,286.1548,0.00043515,6.646e-05,0.0,0 STARLINK-3837,1 52358U 22045AD  23086.14232804  .00006646  00000-0  43515-3 0  9992,2 52358  53.2175   0.9058 0001644  73.9625 286.1548 15.08850762 52965,6917.847,95.437,540.85,538.575,0.0
52358.0,STARLINK-3837,PAYLOAD,2023-03-27 05:00:20,15.08851228,0.0001575,53.2169,0.6087,73.8765,286.2401,0.00059616,9.216e-05,0.0,0 STARLINK-3837,1 52358U 22045AD  23086.20856779  .00009216  00000-0  59616-3 0  9997,2 52358  53.2169   0.6087 0001575  73.8765 286.2401 15.08851228 52972,6917.846,95.437,540.801,538.622,0.0
52358.0,STARLINK-3837,PAYLOAD,2023-03-27 22:29:34,15.08855427,0.0001537,53.2171,357.3367,76.1888,283.9275,0.00030169,4.519e-05,0.0,0 STARLINK-3837,1 52358U 22045AD  23086.93720204  .00004519  00000-0  30169-3 0  9993,2 52358  53.2171 357.3367 0001537  76.1888 283.9275 15.08855427 53089,6917.833,95.437,540.762,538.635,0.0
52358.0,STARLINK-3837,PAYLOAD,2023-03-28 03:15:43,15.08863494,0.0001444,53.2168,356.4443,79.5985,280.517,0.00047241,7.243e-05,0.0,0 STARLINK-3837,1 52358U 22045AD  23087.13591614  .00007243  00000-0  47241-3 0  9993,2 52358  53.2168 356.4443 0001444  79.5985 280.5170 15.08863494 53116,6917.809,95.436,540.673,538.675,0.0
52358.0,STARLINK-3837,PAYLOAD,2023-03-28 17:34:11,15.08850177,0.000146,53.2161,353.7687,74.1491,285.9662,0.00015167,2.127e-05,0.0,0 STARLINK-3837,1 52358U 22045AD  23087.73207831  .00002127  00000-0  15167-3 0  9992,2 52358  53.2161 353.7687 0001460  74.1491 285.9662 15.08850177 53209,6917.849,95.437,540.724,538.704,0.0
52358.0,STARLINK-3837,PAYLOAD,2023-03-28 23:55:43,15.08853859,0.00014,53.2161,352.5797,79.5316,280.5833,0.00027665,4.119e-05,0.0,0 STARLINK-3837,1 52358U 22045AD  23087.99703596  .00004119  00000-0  27665-3 0  9998,2 52358  53.2161 352.5797 0001400  79.5316 280.5833 15.08853859 53242,6917.838,95.437,540.672,538.735,0.0
52358.0,STARLINK-3837,PAYLOAD,2023-03-29 03:06:29,15.0885682,0.0001409,53.2159,351.9836,84.4431,275.6722,0.00053867,8.299e-05,0.0,0 STARLINK-3837,1 52358U 22045AD  23088.12951339  .00008299  00000-0  53867-3 0  9990,2 52358  53.2159 351.9836 0001409  84.4431 275.6722 15.08856820 53263,6917.829,95.436,540.669,538.719,0.0
52358.0,STARLINK-3837,PAYLOAD,2023-03-29 20:35:44,15.08838923,0.0001523,53.2168,348.7118,101.682,258.4343,0.00014779,2.065e-05,0.0,0 STARLINK-3837,1 52358U 22045AD  23088.85815744  .00002065  00000-0  14779-3 0  9993,2 52358  53.2168 348.7118 0001523 101.6820 258.4343 15.08838923 53375,6917.884,95.438,540.802,538.695,0.0
52358.0,STARLINK-3837,PAYLOAD,2023-03-30 04:32:40,15.08859273,0.0001437,53.2169,347.2254,75.9887,284.1264,0.0011367,0.00017858,0.0,0 STARLINK-3837,1 52358U 22045AD  23089.18935745  .00017858  00000-0  11367-2 0  9999,2 52358  53.2169 347.2254 0001437  75.9887 284.1264 15.08859273 53426,6917.821,95.436,540.681,538.692,0.0
52358.0,STARLINK-3837,PAYLOAD,2023-03-31 02:48:04,15.08849033,0.0001484,53.2179,343.0613,60.6604,299.4536,0.00085236,0.00013307,0.0,0 STARLINK-3837,1 52358U 22045AD  23090.11672301  .00013307  00000-0  85236-3 0  9992,2 52358  53.2179 343.0613 0001484  60.6604 299.4536 15.08849033 53569,6917.853,95.437,540.744,538.691,0.0
52358.0,STARLINK-3837,PAYLOAD,2023-03-31 20:17:19,15.08843907,9.97e-05,53.2167,339.79,74.9228,285.1875,0.00088604,0.00013843,0.0,0 STARLINK-3837,1 52358U 22045AD  23090.84536712  .00013843  00000-0  88604-3 0  9994,2 52358  53.2167 339.7900 0000997  74.9228 285.1875 15.08843907 53679,6917.868,95.437,540.423,539.044,0.0
